0 DELTA 1 DEB
1 09702U 73086GA  13281.57622796  .00000537  00000-0  84857-2 0  9349
2 09702 103.1055 290.5933 0712661 167.9159 318.5871 11.36448733663061
0 DELTA 1 DEB
1 09702U 73086GA  13287.64825521  .00000579  00000-0  91204-2 0  9366
2 09702 103.0998 295.9768 0712149 159.0927 320.6337 11.36455776663759
0 DELTA 1 DEB
1 09702U 73086GA  13289.67275962  .00000589  00000-0  92674-2 0  9373
2 09702 103.1018 297.7686 0711316 156.1413 323.3877 11.36459581663987
0 DELTA 1 DEB
1 09702U 73086GA  13292.49791499  .00000594  00000-0  93560-2 0  9387
2 09702 103.0991 300.2714 0710499 152.0245 001.8339 11.36462345664307
0 DELTA 1 DEB
1 09702U 73086GA  13294.60267506  .00000555  00000-0  87879-2 0  9393
2 09702 103.0982 302.1369 0709505 148.9526 332.9795 11.36464954664544
